[
  {
    "OBJECT_NAME": "STARLINK-31760",
    "OBJECT_ID": "24098M",
    "EPOCH": "2025-11-11T03:33:58.888800",
    "MEAN_MOTION": 15.27591545,
    "ECCENTRICITY": 4.61e-05,
    "INCLINATION": 43.0002,
    "RA_OF_ASC_NODE": 227.7324,
    "ARG_OF_PERICENTER": 319.3684,
    "MEAN_ANOMALY": 40.7133,
    "EPHEMERIS_TYPE": 0,
    "CLASSIFICATION_TYPE": "U",
    "NORAD_CAT_ID": 59869,
    "ELEMENT_SET_NO": 999,
    "REV_AT_EPOCH": 8371,
    "BSTAR": 0.00016608,
    "MEAN_MOTION_DOT": 4.313e-05,
    "MEAN_MOTION_DDOT": 0.0,
    "TLE_LINE1": "1 59869U 24098M   25315.14859825  .00004313  00000+0  16608-3 0  9992",
    "TLE_LINE2": "2 59869  43.0002 227.7324 0000461 319.3684  40.7133 15.27591545 83711",
    "COMMENT": "Grouped by shell and plane from TLE"
  },
  {
    "OBJECT_NAME": "STARLINK-31945",
    "OBJECT_ID": "24098N",
    "EPOCH": "2025-11-11T03:32:37.556160",
    "MEAN_MOTION": 15.27594312,
    "ECCENTRICITY": 0.0001378,
    "INCLINATION": 43.0023,
    "RA_OF_ASC_NODE": 223.3958,
    "ARG_OF_PERICENTER": 292.2105,
    "MEAN_ANOMALY": 67.86,
    "EPHEMERIS_TYPE": 0,
    "CLASSIFICATION_TYPE": "U",
    "NORAD_CAT_ID": 59870,
    "ELEMENT_SET_NO": 999,
    "REV_AT_EPOCH": 8376,
    "BSTAR": 0.00025944,
    "MEAN_MOTION_DOT": 6.887e-05,
    "MEAN_MOTION_DDOT": 0.0,
    "TLE_LINE1": "1 59870U 24098N   25315.14765690  .00006887  00000+0  25944-3 0  9991",
    "TLE_LINE2": "2 59870  43.0023 223.3958 0001378 292.2105  67.8600 15.27594312 83765",
    "COMMENT": "Grouped by shell and plane from TLE"
  },
  {
    "OBJECT_NAME": "STARLINK-31937",
    "OBJECT_ID": "24098P",
    "EPOCH": "2025-11-11T03:00:12.913344",
    "MEAN_MOTION": 15.27585612,
    "ECCENTRICITY": 8.19e-05,
    "INCLINATION": 43.001,
    "RA_OF_ASC_NODE": 220.6338,
    "ARG_OF_PERICENTER": 286.147,
    "MEAN_ANOMALY": 73.9291,
    "EPHEMERIS_TYPE": 0,
    "CLASSIFICATION_TYPE": "U",
    "NORAD_CAT_ID": 59871,
    "ELEMENT_SET_NO": 999,
    "REV_AT_EPOCH": 8379,
    "BSTAR": 8.6732e-05,
    "MEAN_MOTION_DOT": 2.126e-05,
    "MEAN_MOTION_DDOT": 0.0,
    "TLE_LINE1": "1 59871U 24098P   25315.12514946  .00002126  00000+0  86732-4 0  9991",
    "TLE_LINE2": "2 59871  43.0010 220.6338 0000819 286.1470  73.9291 15.27585612 83790",
    "COMMENT": "Grouped by shell and plane from TLE"
  },
  {
    "OBJECT_NAME": "STARLINK-31933",
    "OBJECT_ID": "24098S",
    "EPOCH": "2025-11-11T04:31:07.436928",
    "MEAN_MOTION": 15.27597461,
    "ECCENTRICITY": 0.0001017,
    "INCLINATION": 43.0014,
    "RA_OF_ASC_NODE": 227.1626,
    "ARG_OF_PERICENTER": 308.4284,
    "MEAN_ANOMALY": 51.6476,
    "EPHEMERIS_TYPE": 0,
    "CLASSIFICATION_TYPE": "U",
    "NORAD_CAT_ID": 59874,
    "ELEMENT_SET_NO": 999,
    "REV_AT_EPOCH": 8372,
    "BSTAR": 5.8509000000000005e-05,
    "MEAN_MOTION_DOT": 1.349e-05,
    "MEAN_MOTION_DDOT": 0.0,
    "TLE_LINE1": "1 59874U 24098S   25315.18828052  .00001349  00000+0  58509-4 0  9993",
    "TLE_LINE2": "2 59874  43.0014 227.1626 0001017 308.4284  51.6476 15.27597461 83727",
    "COMMENT": "Grouped by shell and plane from TLE"
  },
  {
    "OBJECT_NAME": "STARLINK-31935",
    "OBJECT_ID": "24098U",
    "EPOCH": "2025-11-11T03:28:25.807296",
    "MEAN_MOTION": 15.27588555,
    "ECCENTRICITY": 1.89e-05,
    "INCLINATION": 43.0008,
    "RA_OF_ASC_NODE": 227.7016,
    "ARG_OF_PERICENTER": 44.2191,
    "MEAN_ANOMALY": 315.8676,
    "EPHEMERIS_TYPE": 0,
    "CLASSIFICATION_TYPE": "U",
    "NORAD_CAT_ID": 59876,
    "ELEMENT_SET_NO": 999,
    "REV_AT_EPOCH": 8371,
    "BSTAR": 0.00015198000000000002,
    "MEAN_MOTION_DOT": 3.924e-05,
    "MEAN_MOTION_DDOT": 0.0,
    "TLE_LINE1": "1 59876U 24098U   25315.14474314  .00003924  00000+0  15198-3 0  9996",
    "TLE_LINE2": "2 59876  43.0008 227.7016 0000189  44.2191 315.8676 15.27588555 83712",
    "COMMENT": "Grouped by shell and plane from TLE"
  },
  {
    "OBJECT_NAME": "STARLINK-31934",
    "OBJECT_ID": "24098V",
    "EPOCH": "2025-11-11T04:09:37.287072",
    "MEAN_MOTION": 15.27604901,
    "ECCENTRICITY": 8.76e-05,
    "INCLINATION": 42.997,
    "RA_OF_ASC_NODE": 223.5868,
    "ARG_OF_PERICENTER": 266.9709,
    "MEAN_ANOMALY": 93.1042,
    "EPHEMERIS_TYPE": 0,
    "CLASSIFICATION_TYPE": "U",
    "NORAD_CAT_ID": 59877,
    "ELEMENT_SET_NO": 999,
    "REV_AT_EPOCH": 8376,
    "BSTAR": 0.0002135,
    "MEAN_MOTION_DOT": 5.622e-05,
    "MEAN_MOTION_DDOT": 0.0,
    "TLE_LINE1": "1 59877U 24098V   25315.17334823  .00005622  00000+0  21350-3 0  9994",
    "TLE_LINE2": "2 59877  42.9970 223.5868 0000876 266.9709  93.1042 15.27604901 83761",
    "COMMENT": "Grouped by shell and plane from TLE"
  },
  {
    "OBJECT_NAME": "STARLINK-31919",
    "OBJECT_ID": "24098Y",
    "EPOCH": "2025-11-11T04:42:14.063904",
    "MEAN_MOTION": 15.27591383,
    "ECCENTRICITY": 0.0001538,
    "INCLINATION": 43.001,
    "RA_OF_ASC_NODE": 227.2231,
    "ARG_OF_PERICENTER": 251.1634,
    "MEAN_ANOMALY": 108.9051,
    "EPHEMERIS_TYPE": 0,
    "CLASSIFICATION_TYPE": "U",
    "NORAD_CAT_ID": 59880,
    "ELEMENT_SET_NO": 999,
    "REV_AT_EPOCH": 8372,
    "BSTAR": 0.00024187000000000001,
    "MEAN_MOTION_DOT": 6.402e-05,
    "MEAN_MOTION_DDOT": 0.0,
    "TLE_LINE1": "1 59880U 24098Y   25315.19599611  .00006402  00000+0  24187-3 0  9996",
    "TLE_LINE2": "2 59880  43.0010 227.2231 0001538 251.1634 108.9051 15.27591383 83726",
    "COMMENT": "Grouped by shell and plane from TLE"
  },
  {
    "OBJECT_NAME": "STARLINK-31441",
    "OBJECT_ID": "24117A",
    "EPOCH": "2025-11-11T04:23:07.502208",
    "MEAN_MOTION": 15.30203443,
    "ECCENTRICITY": 0.000134,
    "INCLINATION": 53.1614,
    "RA_OF_ASC_NODE": 227.5004,
    "ARG_OF_PERICENTER": 82.2979,
    "MEAN_ANOMALY": 277.8174,
    "EPHEMERIS_TYPE": 0,
    "CLASSIFICATION_TYPE": "U",
    "NORAD_CAT_ID": 60091,
    "ELEMENT_SET_NO": 999,
    "REV_AT_EPOCH": 7874,
    "BSTAR": 7.297900000000001e-05,
    "MEAN_MOTION_DOT": 1.803e-05,
    "MEAN_MOTION_DDOT": 0.0,
    "TLE_LINE1": "1 60091U 24117A   25315.18272572  .00001803  00000+0  72979-4 0  9990",
    "TLE_LINE2": "2 60091  53.1614 227.5004 0001340  82.2979 277.8174 15.30203443 78740",
    "COMMENT": "Grouped by shell and plane from TLE"
  },
  {
    "OBJECT_NAME": "STARLINK-32044",
    "OBJECT_ID": "24117B",
    "EPOCH": "2025-11-11T03:54:16.884288",
    "MEAN_MOTION": 15.30160879,
    "ECCENTRICITY": 0.0001615,
    "INCLINATION": 53.1609,
    "RA_OF_ASC_NODE": 227.3716,
    "ARG_OF_PERICENTER": 90.8,
    "MEAN_ANOMALY": 269.3186,
    "EPHEMERIS_TYPE": 0,
    "CLASSIFICATION_TYPE": "U",
    "NORAD_CAT_ID": 60092,
    "ELEMENT_SET_NO": 999,
    "REV_AT_EPOCH": 7874,
    "BSTAR": 0.00039044000000000004,
    "MEAN_MOTION_DOT": 0.00011208,
    "MEAN_MOTION_DDOT": 0.0,
    "TLE_LINE1": "1 60092U 24117B   25315.16269542  .00011208  00000+0  39044-3 0  9997",
    "TLE_LINE2": "2 60092  53.1609 227.3716 0001615  90.8000 269.3186 15.30160879 78742",
    "COMMENT": "Grouped by shell and plane from TLE"
  },
  {
    "OBJECT_NAME": "STARLINK-31239",
    "OBJECT_ID": "24117C",
    "EPOCH": "2025-11-11T03:36:11.241504",
    "MEAN_MOTION": 15.30192237,
    "ECCENTRICITY": 0.0001324,
    "INCLINATION": 53.1603,
    "RA_OF_ASC_NODE": 228.0072,
    "ARG_OF_PERICENTER": 89.2287,
    "MEAN_ANOMALY": 270.8865,
    "EPHEMERIS_TYPE": 0,
    "CLASSIFICATION_TYPE": "U",
    "NORAD_CAT_ID": 60093,
    "ELEMENT_SET_NO": 999,
    "REV_AT_EPOCH": 7873,
    "BSTAR": 8.1253e-05,
    "MEAN_MOTION_DOT": 2.047e-05,
    "MEAN_MOTION_DDOT": 0.0,
    "TLE_LINE1": "1 60093U 24117C   25315.15013011  .00002047  00000+0  81253-4 0  9996",
    "TLE_LINE2": "2 60093  53.1603 228.0072 0001324  89.2287 270.8865 15.30192237 78739",
    "COMMENT": "Grouped by shell and plane from TLE"
  },
  {
    "OBJECT_NAME": "STARLINK-32007",
    "OBJECT_ID": "24117D",
    "EPOCH": "2025-11-11T03:16:26.725152",
    "MEAN_MOTION": 15.30239594,
    "ECCENTRICITY": 0.0001207,
    "INCLINATION": 53.159,
    "RA_OF_ASC_NODE": 227.922,
    "ARG_OF_PERICENTER": 115.4012,
    "MEAN_ANOMALY": 244.7114,
    "EPHEMERIS_TYPE": 0,
    "CLASSIFICATION_TYPE": "U",
    "NORAD_CAT_ID": 60094,
    "ELEMENT_SET_NO": 999,
    "REV_AT_EPOCH": 7873,
    "BSTAR": 0.002081,
    "MEAN_MOTION_DOT": 0.00061864,
    "MEAN_MOTION_DDOT": 0.0,
    "TLE_LINE1": "1 60094U 24117D   25315.13642043  .00061864  00000+0  20810-2 0  9990",
    "TLE_LINE2": "2 60094  53.1590 227.9220 0001207 115.4012 244.7114 15.30239594 78731",
    "COMMENT": "Grouped by shell and plane from TLE"
  },
  {
    "OBJECT_NAME": "STARLINK-32028",
    "OBJECT_ID": "24117E",
    "EPOCH": "2025-11-11T01:28:43.528224",
    "MEAN_MOTION": 15.30180306,
    "ECCENTRICITY": 0.0001267,
    "INCLINATION": 53.1604,
    "RA_OF_ASC_NODE": 228.1662,
    "ARG_OF_PERICENTER": 96.6135,
    "MEAN_ANOMALY": 263.501,
    "EPHEMERIS_TYPE": 0,
    "CLASSIFICATION_TYPE": "U",
    "NORAD_CAT_ID": 60095,
    "ELEMENT_SET_NO": 999,
    "REV_AT_EPOCH": 7872,
    "BSTAR": 0.0,
    "MEAN_MOTION_DOT": -1.566e-05,
    "MEAN_MOTION_DDOT": 0.0,
    "TLE_LINE1": "1 60095U 24117E   25315.06161491 -.00001566  00000+0 -40778-4 0  9998",
    "TLE_LINE2": "2 60095  53.1604 228.1662 0001267  96.6135 263.5010 15.30180306 78722",
    "COMMENT": "Grouped by shell and plane from TLE"
  },
  {
    "OBJECT_NAME": "STARLINK-32016",
    "OBJECT_ID": "24117F",
    "EPOCH": "2025-11-11T03:30:06.305184",
    "MEAN_MOTION": 15.30198085,
    "ECCENTRICITY": 0.0001048,
    "INCLINATION": 53.1606,
    "RA_OF_ASC_NODE": 227.9841,
    "ARG_OF_PERICENTER": 104.9131,
    "MEAN_ANOMALY": 255.1986,
    "EPHEMERIS_TYPE": 0,
    "CLASSIFICATION_TYPE": "U",
    "NORAD_CAT_ID": 60096,
    "ELEMENT_SET_NO": 999,
    "REV_AT_EPOCH": 7873,
    "BSTAR": 8.1416e-06,
    "MEAN_MOTION_DOT": -1.18e-06,
    "MEAN_MOTION_DDOT": 0.0,
    "TLE_LINE1": "1 60096U 24117F   25315.14590631 -.00000118  00000+0  81416-5 0  9996",
    "TLE_LINE2": "2 60096  53.1606 227.9841 0001048 104.9131 255.1986 15.30198085 78730",
    "COMMENT": "Grouped by shell and plane from TLE"
  }
]